{"type": "FeatureCollection", "features": [ {"type": "Feature", "properties": {"norad_id": 33779, "name": "COSMOS 2251 DEB", "group": "cosmos-2251-debris", "lat": 69.5207221867532, "lon": -68.42088762428578, "alt_km": 652.4217658031084, "timestamp": "2025-12-17T10:52:54.744750+00:00", "meta": {"OBJECT_NAME": "COSMOS 2251 DEB", "OBJECT_ID": "1993-036U", "EPOCH": "2025-12-16T21:53:52.874592", "MEAN_MOTION": 14.70551379, "ECCENTRICITY": 0.00167033, "INCLINATION": 74.0439, "RA_OF_ASC_NODE": 162.6305, "ARG_OF_PERICENTER": 195.4599, "MEAN_ANOMALY": 284.8683, "EPHEMERIS_TYPE": 0, "CLASSIFICATION_TYPE": "U", "NORAD_CAT_ID": 33779, "ELEMENT_SET_NO": 999, "REV_AT_EPOCH": 88589, "BSTAR": 0.0017786774, "MEAN_MOTION_DOT": 0.00010811, "MEAN_MOTION_DDOT": 0}, "tle": {"line1": "1 33779U 93036U   25350.91241753  .00010811  00000+0  17787-2 0  9999", "line2": "2 33779  74.0439 162.6305 0016703 195.4599 284.8683 14.70551379885899"}}, "geometry": {"type": "Point", "coordinates": [-68.42088762428578, 69.5207221867532]}}, {"type": "Feature", "properties": {"norad_id": 33782, "name": "COSMOS 2251 DEB", "group": "cosmos-2251-debris", "lat": 67.93433946314403, "lon": -46.23519774935618, "alt_km": 753.011296413476, "timestamp": "2025-12-17T10:52:54.744760+00:00", "meta": {"OBJECT_NAME": "COSMOS 2251 DEB", "OBJECT_ID": "1993-036X", "EPOCH": "2025-12-16T19:47:49.238880", "MEAN_MOTION": 14.40458842, "ECCENTRICITY": 0.00208995, "INCLINATION": 74.0329, "RA_OF_ASC_NODE": 269.9913, "ARG_OF_PERICENTER": 334.2128, "MEAN_ANOMALY": 82.1034, "EPHEMERIS_TYPE": 0, "CLASSIFICATION_TYPE": "U", "NORAD_CAT_ID": 33782, "ELEMENT_SET_NO": 999, "REV_AT_EPOCH": 88185, "BSTAR": 0.00036351896, "MEAN_MOTION_DOT": 1.132e-05, "MEAN_MOTION_DDOT": 0}, "tle": {"line1": "1 33782U 93036X   25350.82487545  .00001132  00000+0  36352-3 0  9990", "line2": "2 33782  74.0329 269.9913 0020899 334.2128  82.1034 14.40458842881858"}}, "geometry": {"type": "Point", "coordinates": [-46.23519774935618, 67.93433946314403]}}, {"type": "Feature", "properties": {"norad_id": 33785, "name": "COSMOS 2251 DEB", "group": "cosmos-2251-debris", "lat": 69.56731468106055, "lon": 101.66695170949038, "alt_km": 651.4903365040691, "timestamp": "2025-12-17T10:52:54.744771+00:00", "meta": {"OBJECT_NAME": "COSMOS 2251 DEB", "OBJECT_ID": "1993-036AA", "EPOCH": "2025-12-16T15:30:20.013408", "MEAN_MOTION": 14.70577854, "ECCENTRICITY": 0.00226485, "INCLINATION": 73.8676, "RA_OF_ASC_NODE": 52.2691, "ARG_OF_PERICENTER": 351.0345, "MEAN_ANOMALY": 133.6081, "EPHEMERIS_TYPE": 0, "CLASSIFICATION_TYPE": "U", "NORAD_CAT_ID": 33785, "ELEMENT_SET_NO": 999, "REV_AT_EPOCH": 88564, "BSTAR": 0.0013677124, "MEAN_MOTION_DOT": 8.321e-05, "MEAN_MOTION_DDOT": 0}, "tle": {"line1": "1 33785U 93036AA  25350.64606497  .00008321  00000+0  13677-2 0  9993", "line2": "2 33785  73.8676  52.2691 0022648 351.0345 133.6081 14.70577854885644"}}, "geometry": {"type": "Point", "coordinates": [101.66695170949038, 69.56731468106055]}}, {"type": "Feature", "properties": {"norad_id": 33789, "name": "COSMOS 2251 DEB", "group": "cosmos-2251-debris", "lat": -46.21550417033858, "lon": 62.06382928865167, "alt_km": 1016.6794701842982, "timestamp": "2025-12-17T10:52:54.744781+00:00", "meta": {"OBJECT_NAME": "COSMOS 2251 DEB", "OBJECT_ID": "1993-036AE", "EPOCH": "2025-12-16T23:34:47.081568", "MEAN_MOTION": 13.88805503, "ECCENTRICITY": 0.02400192, "INCLINATION": 74.0646, "RA_OF_ASC_NODE": 80.2056, "ARG_OF_PERICENTER": 194.9024, "MEAN_ANOMALY": 280.4922, "EPHEMERIS_TYPE": 0, "CLASSIFICATION_TYPE": "U", "NORAD_CAT_ID": 33789, "ELEMENT_SET_NO": 999, "REV_AT_EPOCH": 85154, "BSTAR": 0.0006268407, "MEAN_MOTION_DOT": 9.3e-06, "MEAN_MOTION_DDOT": 0}, "tle": {"line1": "1 33789U 93036AE  25350.98248937  .00000930  00000+0  62684-3 0  9996", "line2": "2 33789  74.0646  80.2056 0240019 194.9024 280.4922 13.88805503851546"}}, "geometry": {"type": "Point", "coordinates": [62.06382928865167, -46.21550417033858]}}, {"type": "Feature", "properties": {"norad_id": 33791, "name": "COSMOS 2251 DEB", "group": "cosmos-2251-debris", "lat": 22.88044539743666, "lon": 35.77616389569171, "alt_km": 767.5332666339109, "timestamp": "2025-12-17T10:52:54.744791+00:00", "meta": {"OBJECT_NAME": "COSMOS 2251 DEB", "OBJECT_ID": "1993-036AG", "EPOCH": "2025-12-16T20:37:02.956800", "MEAN_MOTION": 14.43145858, "ECCENTRICITY": 0.00303812, "INCLINATION": 74.1753, "RA_OF_ASC_NODE": 29.9958, "ARG_OF_PERICENTER": 226.5016, "MEAN_ANOMALY": 310.7325, "EPHEMERIS_TYPE": 0, "CLASSIFICATION_TYPE": "U", "NORAD_CAT_ID": 33791, "ELEMENT_SET_NO": 999, "REV_AT_EPOCH": 88111, "BSTAR": 0.00064186, "MEAN_MOTION_DOT": 2.143e-05, "MEAN_MOTION_DDOT": 0}, "tle": {"line1": "1 33791U 93036AG  25350.85906200  .00002143  00000+0  64186-3 0  9996", "line2": "2 33791  74.1753  29.9958 0030381 226.5016 310.7325 14.43145858881114"}}, "geometry": {"type": "Point", "coordinates": [35.77616389569171, 22.88044539743666]}}, {"type": "Feature", "properties": {"norad_id": 33792, "name": "COSMOS 2251 DEB", "group": "cosmos-2251-debris", "lat": -40.812328983679514, "lon": 172.2580342239436, "alt_km": 1412.755514502037, "timestamp": "2025-12-17T10:52:54.744802+00:00", "meta": {"OBJECT_NAME": "COSMOS 2251 DEB", "OBJECT_ID": "1993-036AH", "EPOCH": "2025-12-16T23:24:16.168032", "MEAN_MOTION": 13.45829854, "ECCENTRICITY": 0.04272915, "INCLINATION": 73.901, "RA_OF_ASC_NODE": 338.5804, "ARG_OF_PERICENTER": 42.4496, "MEAN_ANOMALY": 24.2939, "EPHEMERIS_TYPE": 0, "CLASSIFICATION_TYPE": "U", "NORAD_CAT_ID": 33792, "ELEMENT_SET_NO": 999, "REV_AT_EPOCH": 82499, "BSTAR": 0.00084913253, "MEAN_MOTION_DOT": 8.6e-06, "MEAN_MOTION_DDOT": 0}, "tle": {"line1": "1 33792U 93036AH  25350.97518713  .00000860  00000+0  84913-3 0  9992", "line2": "2 33792  73.9010 338.5804 0427291  42.4496  24.2939 13.45829854824991"}}, "geometry": {"type": "Point", "coordinates": [172.2580342239436, -40.812328983679514]}}, {"type": "Feature", "properties": {"norad_id": 33793, "name": "COSMOS 2251 DEB", "group": "cosmos-2251-debris", "lat": 7.153723322969005, "lon": 143.41720801249332, "alt_km": 787.8489831875731, "timestamp": "2025-12-17T10:52:54.744812+00:00", "meta": {"OBJECT_NAME": "COSMOS 2251 DEB", "OBJECT_ID": "1993-036AJ", "EPOCH": "2025-12-16T20:16:27.594912", "MEAN_MOTION": 14.27736866, "ECCENTRICITY": 0.00786285, "INCLINATION": 73.9805, "RA_OF_ASC_NODE": 142.4566, "ARG_OF_PERICENTER": 291.7495, "MEAN_ANOMALY": 187.8133, "EPHEMERIS_TYPE": 0, "CLASSIFICATION_TYPE": "U", "NORAD_CAT_ID": 33793, "ELEMENT_SET_NO": 999, "REV_AT_EPOCH": 87265, "BSTAR": 0.00059908934, "MEAN_MOTION_DOT": 1.502e-05, "MEAN_MOTION_DDOT": 0}, "tle": {"line1": "1 33793U 93036AJ  25350.84476383  .00001502  00000+0  59909-3 0  9996", "line2": "2 33793  73.9805 142.4566 0078628 291.7495 187.8133 14.27736866872654"}}, "geometry": {"type": "Point", "coordinates": [143.41720801249332, 7.153723322969005]}}, {"type": "Feature", "properties": {"norad_id": 33795, "name": "COSMOS 2251 DEB", "group": "cosmos-2251-debris", "lat": -12.963969451660406, "lon": -109.14897800960522, "alt_km": 538.3643033368044, "timestamp": "2025-12-17T10:52:54.744823+00:00", "meta": {"OBJECT_NAME": "COSMOS 2251 DEB", "OBJECT_ID": "1993-036AL", "EPOCH": "2025-12-16T23:39:02.985408", "MEAN_MOTION": 15.05663815, "ECCENTRICITY": 0.00309811, "INCLINATION": 74.0325, "RA_OF_ASC_NODE": 68.0309, "ARG_OF_PERICENTER": 149.7164, "MEAN_ANOMALY": 27.9589, "EPHEMERIS_TYPE": 0, "CLASSIFICATION_TYPE": "U", "NORAD_CAT_ID": 33795, "ELEMENT_SET_NO": 999, "REV_AT_EPOCH": 90085, "BSTAR": 0.0009617673, "MEAN_MOTION_DOT": 0.00014031, "MEAN_MOTION_DDOT": 0}, "tle": {"line1": "1 33795U 93036AL  25350.98545122  .00014031  00000+0  96177-3 0  9990", "line2": "2 33795  74.0325  68.0309 0030981 149.7164  27.9589 15.05663815900851"}}, "geometry": {"type": "Point", "coordinates": [-109.14897800960522, -12.963969451660406]}}, {"type": "Feature", "properties": {"norad_id": 33797, "name": "COSMOS 2251 DEB", "group": "cosmos-2251-debris", "lat": -69.35019249576274, "lon": -23.371135115181836, "alt_km": 749.2919764252229, "timestamp": "2025-12-17T10:52:54.744833+00:00", "meta": {"OBJECT_NAME": "COSMOS 2251 DEB", "OBJECT_ID": "1993-036AN", "EPOCH": "2025-12-16T14:23:48.875136", "MEAN_MOTION": 14.57862763, "ECCENTRICITY": 0.00605334, "INCLINATION": 74.0479, "RA_OF_ASC_NODE": 27.6233, "ARG_OF_PERICENTER": 114.3493, "MEAN_ANOMALY": 11.0399, "EPHEMERIS_TYPE": 0, "CLASSIFICATION_TYPE": "U", "NORAD_CAT_ID": 33797, "ELEMENT_SET_NO": 999, "REV_AT_EPOCH": 89041, "BSTAR": 0.00030010818, "MEAN_MOTION_DOT": 1.38e-05, "MEAN_MOTION_DDOT": 0}, "tle": {"line1": "1 33797U 93036AN  25350.59987124  .00001380  00000+0  30011-3 0  9999", "line2": "2 33797  74.0479  27.6233 0060533 114.3493  11.0399 14.57862763890411"}}, "geometry": {"type": "Point", "coordinates": [-23.371135115181836, -69.35019249576274]}}, {"type": "Feature", "properties": {"norad_id": 33798, "name": "COSMOS 2251 DEB", "group": "cosmos-2251-debris", "lat": -57.378176973703795, "lon": 100.54598261922386, "alt_km": 708.5812147863853, "timestamp": "2025-12-17T10:52:54.744844+00:00", "meta": {"OBJECT_NAME": "COSMOS 2251 DEB", "OBJECT_ID": "1993-036AP", "EPOCH": "2025-12-16T20:46:19.257024", "MEAN_MOTION": 14.44619734, "ECCENTRICITY": 0.00924481, "INCLINATION": 74.0286, "RA_OF_ASC_NODE": 128.2204, "ARG_OF_PERICENTER": 248.6967, "MEAN_ANOMALY": 233.0947, "EPHEMERIS_TYPE": 0, "CLASSIFICATION_TYPE": "U", "NORAD_CAT_ID": 33798, "ELEMENT_SET_NO": 999, "REV_AT_EPOCH": 88653, "BSTAR": 0.00016263232, "MEAN_MOTION_DOT": 5.64e-06, "MEAN_MOTION_DDOT": 0}, "tle": {"line1": "1 33798U 93036AP  25350.86550066  .00000564  00000+0  16263-3 0  9997", "line2": "2 33798  74.0286 128.2204 0092448 248.6967 233.0947 14.44619734886538"}}, "geometry": {"type": "Point", "coordinates": [100.54598261922386, -57.378176973703795]}}]}